STARLINK-11572 [DTC]    
1 62990U 25031K   26030.28047034  .00274559  00000+0  20687-2 0  9992
2 62990  43.0005 232.7960 0001849 270.2515  89.8141 15.70893188 56702
STARLINK-11583 [DTC]    
1 62991U 25031L   26029.61198587  .00260568  00000+0  19671-2 0  9994
2 62991  42.9985 237.2601 0002054 250.6340 109.4305 15.70888730 56604
STARLINK-11570 [DTC]    
1 62992U 25031M   26029.99880969  .00253611  00000+0  19175-2 0  9998
2 62992  42.9995 235.0055 0001748 271.8820  88.1848 15.70874569 56646
STARLINK-11576 [DTC]    
1 62993U 25031N   26029.98288176  .00286792  00000+0  21668-2 0  9996
2 62993  42.9989 234.8748 0001280 271.4850  88.5870 15.70790408 56644
STARLINK-32899          
1 62994U 25031P   26030.26120361  .00053967  00000+0  19534-2 0  9996
2 62994  43.0002   0.7458 0001395 274.4676  85.6017 15.27628748 55219
STARLINK-32819          
1 62995U 25031Q   26029.96624565  .00036319  00000+0  13217-2 0  9991
2 62995  42.9981   1.9626 0001394 169.7430 190.3451 15.27607867 55177
STARLINK-32703          
1 62996U 25031R   26029.92912853  .00031294  00000+0  11405-2 0  9992
2 62996  42.9993   2.5523 0006387 137.1197 223.0153 15.27604618 55163
STARLINK-32881          
1 62997U 25031S   26030.28289642  .00044666  00000+0  16218-2 0  9991
2 62997  43.0036   0.0387 0001329 257.6331 102.4372 15.27600952 55221
STARLINK-32898          
1 62998U 25031T   26030.18425278  .00034968  00000+0  12739-2 0  9996
2 62998  43.0026   1.0273 0001463 283.6606  76.4083 15.27589172 55206
STARLINK-32658          
1 62999U 25031U   26030.28674708  .00046443  00000+0  16843-2 0  9993
2 62999  43.0030   0.0723 0001645 276.6263  83.4402 15.27624249 55224
STARLINK-32673          
1 63000U 25031V   26029.97781620  .00042253  00000+0  15335-2 0  9993
2 63000  43.0031   2.0541 0001169 224.0130 136.0629 15.27638531 55179
STARLINK-32437          
1 63001U 25031W   26030.26505841  .00036284  00000+0  13214-2 0  9998
2 63001  42.9990   0.7770 0000862 255.2183 104.8573 15.27583944 55217
STARLINK-11448 [DTC]    
1 63005U 25032A   26030.06801329  .00340476  00000+0  25239-2 0  9992
2 63005  43.0006  67.7808 0003290 321.0796  38.9835 15.71081546 56158
STARLINK-11553 [DTC]    
1 63006U 25032B   26030.24826148  .00274932  00000+0  20675-2 0  9991
2 63006  43.0003  67.4411 0001436 242.4690 117.6032 15.70937440 56169
STARLINK-11526 [DTC]    
1 63007U 25032C   26030.25344188  .00297617  00000+0  22303-2 0  9997
2 63007  42.9994  66.5874 0001415 238.9540 121.1189 15.70951712 56173
STARLINK-11405 [DTC]    
1 63008U 25032D   26030.30213328 -.00026786  00000+0 -20494-3 0  9994
2 63008  43.0008  66.9793 0001913 252.5279 107.5379 15.70951908 56020
