[{"OBJECT_NAME":"STARLINK-11572 [DTC]","OBJECT_ID":"2025-031K","EPOCH":"2026-01-30T06:43:52.637376","MEAN_MOTION":15.70893188,"ECCENTRICITY":0.00018491,"INCLINATION":43.0005,"RA_OF_ASC_NODE":232.796,"ARG_OF_PERICENTER":270.2515,"MEAN_ANOMALY":89.8141,"EPHEMERIS_TYPE":0,"CLASSIFICATION_TYPE":"U","NORAD_CAT_ID":62990,"ELEMENT_SET_NO":999,"REV_AT_EPOCH":5670,"BSTAR":0.0020686666,"MEAN_MOTION_DOT":0.00274559,"MEAN_MOTION_DDOT":0},{"OBJECT_NAME":"STARLINK-11583 [DTC]","OBJECT_ID":"2025-031L","EPOCH":"2026-01-29T14:41:15.579168","MEAN_MOTION":15.7088873,"ECCENTRICITY":0.0002054,"INCLINATION":42.9985,"RA_OF_ASC_NODE":237.2601,"ARG_OF_PERICENTER":250.634,"MEAN_ANOMALY":109.4305,"EPHEMERIS_TYPE":0,"CLASSIFICATION_TYPE":"U","NORAD_CAT_ID":62991,"ELEMENT_SET_NO":999,"REV_AT_EPOCH":5660,"BSTAR":0.0019671195,"MEAN_MOTION_DOT":0.00260568,"MEAN_MOTION_DDOT":0},{"OBJECT_NAME":"STARLINK-11570 [DTC]","OBJECT_ID":"2025-031M","EPOCH":"2026-01-29T23:58:17.157216","MEAN_MOTION":15.70874569,"ECCENTRICITY":0.00017483,"INCLINATION":42.9995,"RA_OF_ASC_NODE":235.0055,"ARG_OF_PERICENTER":271.882,"MEAN_ANOMALY":88.1848,"EPHEMERIS_TYPE":0,"CLASSIFICATION_TYPE":"U","NORAD_CAT_ID":62992,"ELEMENT_SET_NO":999,"REV_AT_EPOCH":5664,"BSTAR":0.0019174586,"MEAN_MOTION_DOT":0.00253611,"MEAN_MOTION_DDOT":0},{"OBJECT_NAME":"STARLINK-11576 [DTC]","OBJECT_ID":"2025-031N","EPOCH":"2026-01-29T23:35:20.984064","MEAN_MOTION":15.70790408,"ECCENTRICITY":0.00012808,"INCLINATION":42.9989,"RA_OF_ASC_NODE":234.8748,"ARG_OF_PERICENTER":271.485,"MEAN_ANOMALY":88.587,"EPHEMERIS_TYPE":0,"CLASSIFICATION_TYPE":"U","NORAD_CAT_ID":62993,"ELEMENT_SET_NO":999,"REV_AT_EPOCH":5664,"BSTAR":0.0021667717,"MEAN_MOTION_DOT":0.00286792,"MEAN_MOTION_DDOT":0},{"OBJECT_NAME":"STARLINK-32899","OBJECT_ID":"2025-031P","EPOCH":"2026-01-30T06:16:07.991904","MEAN_MOTION":15.27628748,"ECCENTRICITY":0.00013953,"INCLINATION":43.0002,"RA_OF_ASC_NODE":0.7458,"ARG_OF_PERICENTER":274.4676,"MEAN_ANOMALY":85.6017,"EPHEMERIS_TYPE":0,"CLASSIFICATION_TYPE":"U","NORAD_CAT_ID":62994,"ELEMENT_SET_NO":999,"REV_AT_EPOCH":5521,"BSTAR":0.0019534499,"MEAN_MOTION_DOT":0.00053967,"MEAN_MOTION_DDOT":0},{"OBJECT_NAME":"STARLINK-32819","OBJECT_ID":"2025-031Q","EPOCH":"2026-01-29T23:11:23.624160","MEAN_MOTION":15.27607867,"ECCENTRICITY":0.00013946,"INCLINATION":42.9981,"RA_OF_ASC_NODE":1.9626,"ARG_OF_PERICENTER":169.743,"MEAN_ANOMALY":190.3451,"EPHEMERIS_TYPE":0,"CLASSIFICATION_TYPE":"U","NORAD_CAT_ID":62995,"ELEMENT_SET_NO":999,"REV_AT_EPOCH":5517,"BSTAR":0.0013217017,"MEAN_MOTION_DOT":0.00036319,"MEAN_MOTION_DDOT":0},{"OBJECT_NAME":"STARLINK-32703","OBJECT_ID":"2025-031R","EPOCH":"2026-01-29T22:17:56.704992","MEAN_MOTION":15.27604618,"ECCENTRICITY":0.00063879,"INCLINATION":42.9993,"RA_OF_ASC_NODE":2.5523,"ARG_OF_PERICENTER":137.1197,"MEAN_ANOMALY":223.0153,"EPHEMERIS_TYPE":0,"CLASSIFICATION_TYPE":"U","NORAD_CAT_ID":62996,"ELEMENT_SET_NO":999,"REV_AT_EPOCH":5516,"BSTAR":0.0011405225,"MEAN_MOTION_DOT":0.00031294,"MEAN_MOTION_DDOT":0},{"OBJECT_NAME":"STARLINK-32881","OBJECT_ID":"2025-031S","EPOCH":"2026-01-30T06:47:22.250688","MEAN_MOTION":15.27600952,"ECCENTRICITY":0.00013297,"INCLINATION":43.0036,"RA_OF_ASC_NODE":0.0387,"ARG_OF_PERICENTER":257.6331,"MEAN_ANOMALY":102.4372,"EPHEMERIS_TYPE":0,"CLASSIFICATION_TYPE":"U","NORAD_CAT_ID":62997,"ELEMENT_SET_NO":999,"REV_AT_EPOCH":5522,"BSTAR":0.001621825,"MEAN_MOTION_DOT":0.00044666,"MEAN_MOTION_DDOT":0},{"OBJECT_NAME":"STARLINK-32898","OBJECT_ID":"2025-031T","EPOCH":"2026-01-30T04:25:19.440192","MEAN_MOTION":15.27589172,"ECCENTRICITY":0.00014636,"INCLINATION":43.0026,"RA_OF_ASC_NODE":1.0273,"ARG_OF_PERICENTER":283.6606,"MEAN_ANOMALY":76.4083,"EPHEMERIS_TYPE":0,"CLASSIFICATION_TYPE":"U","NORAD_CAT_ID":62998,"ELEMENT_SET_NO":999,"REV_AT_EPOCH":5520,"BSTAR":0.001273877,"MEAN_MOTION_DOT":0.00034968,"MEAN_MOTION_DDOT":0},{"OBJECT_NAME":"STARLINK-32658","OBJECT_ID":"2025-031U","EPOCH":"2026-01-30T06:52:54.947712","MEAN_MOTION":15.27624249,"ECCENTRICITY":0.0001645,"INCLINATION":43.003,"RA_OF_ASC_NODE":0.0723,"ARG_OF_PERICENTER":276.6263,"MEAN_ANOMALY":83.4402,"EPHEMERIS_TYPE":0,"CLASSIFICATION_TYPE":"U","NORAD_CAT_ID":62999,"ELEMENT_SET_NO":999,"REV_AT_EPOCH":5522,"BSTAR":0.0016843433,"MEAN_MOTION_DOT":0.00046443,"MEAN_MOTION_DDOT":0},{"OBJECT_NAME":"STARLINK-32673","OBJECT_ID":"2025-031V","EPOCH":"2026-01-29T23:28:03.319680","MEAN_MOTION":15.27638531,"ECCENTRICITY":0.00011693,"INCLINATION":43.0031,"RA_OF_ASC_NODE":2.0541,"ARG_OF_PERICENTER":224.013,"MEAN_ANOMALY":136.0629,"EPHEMERIS_TYPE":0,"CLASSIFICATION_TYPE":"U","NORAD_CAT_ID":63000,"ELEMENT_SET_NO":999,"REV_AT_EPOCH":5517,"BSTAR":0.0015334678,"MEAN_MOTION_DOT":0.00042253,"MEAN_MOTION_DDOT":0},{"OBJECT_NAME":"STARLINK-32437","OBJECT_ID":"2025-031W","EPOCH":"2026-01-30T06:21:41.046624","MEAN_MOTION":15.27583944,"ECCENTRICITY":8.628e-5,"INCLINATION":42.999,"RA_OF_ASC_NODE":0.777,"ARG_OF_PERICENTER":255.2183,"MEAN_ANOMALY":104.8573,"EPHEMERIS_TYPE":0,"CLASSIFICATION_TYPE":"U","NORAD_CAT_ID":63001,"ELEMENT_SET_NO":999,"REV_AT_EPOCH":5521,"BSTAR":0.0013214139,"MEAN_MOTION_DOT":0.00036284,"MEAN_MOTION_DDOT":0},{"OBJECT_NAME":"STARLINK-11448 [DTC]","OBJECT_ID":"2025-032A","EPOCH":"2026-01-30T01:37:56.348256","MEAN_MOTION":15.71081546,"ECCENTRICITY":0.00032902,"INCLINATION":43.0006,"RA_OF_ASC_NODE":67.7808,"ARG_OF_PERICENTER":321.0796,"MEAN_ANOMALY":38.9835,"EPHEMERIS_TYPE":0,"CLASSIFICATION_TYPE":"U","NORAD_CAT_ID":63005,"ELEMENT_SET_NO":999,"REV_AT_EPOCH":5615,"BSTAR":0.0025238828,"MEAN_MOTION_DOT":0.00340476,"MEAN_MOTION_DDOT":0},{"OBJECT_NAME":"STARLINK-11553 [DTC]","OBJECT_ID":"2025-032B","EPOCH":"2026-01-30T05:57:29.791872","MEAN_MOTION":15.7093744,"ECCENTRICITY":0.00014362,"INCLINATION":43.0003,"RA_OF_ASC_NODE":67.4411,"ARG_OF_PERICENTER":242.469,"MEAN_ANOMALY":117.6032,"EPHEMERIS_TYPE":0,"CLASSIFICATION_TYPE":"U","NORAD_CAT_ID":63006,"ELEMENT_SET_NO":999,"REV_AT_EPOCH":5616,"BSTAR":0.0020675439,"MEAN_MOTION_DOT":0.00274932,"MEAN_MOTION_DDOT":0},{"OBJECT_NAME":"STARLINK-11526 [DTC]","OBJECT_ID":"2025-032C","EPOCH":"2026-01-30T06:04:57.378432","MEAN_MOTION":15.70951712,"ECCENTRICITY":0.00014152,"INCLINATION":42.9994,"RA_OF_ASC_NODE":66.5874,"ARG_OF_PERICENTER":238.954,"MEAN_ANOMALY":121.1189,"EPHEMERIS_TYPE":0,"CLASSIFICATION_TYPE":"U","NORAD_CAT_ID":63007,"ELEMENT_SET_NO":999,"REV_AT_EPOCH":5617,"BSTAR":0.0022303489,"MEAN_MOTION_DOT":0.00297617,"MEAN_MOTION_DDOT":0},{"OBJECT_NAME":"STARLINK-11405 [DTC]","OBJECT_ID":"2025-032D","EPOCH":"2026-01-30T07:15:04.315392","MEAN_MOTION":15.70951908,"ECCENTRICITY":0.00019137,"INCLINATION":43.0008,"RA_OF_ASC_NODE":66.9793,"ARG_OF_PERICENTER":252.5279,"MEAN_ANOMALY":107.5379,"EPHEMERIS_TYPE":0,"CLASSIFICATION_TYPE":"U","NORAD_CAT_ID":63008,"ELEMENT_SET_NO":999,"REV_AT_EPOCH":5602,"BSTAR":-0.00020493925,"MEAN_MOTION_DOT":-0.00026786,"MEAN_MOTION_DDOT":0}]
